<?xml version="1.0" encoding="UTF-8"?>
<gpx version="1.1"
     creator="Campos de Galicia"
     xmlns="http://www.topografix.com/GPX/1/1"
     xmlns:xsi="http://www.w3.org/2001/XMLSchema-instance"
     xsi:schemaLocation="http://www.topografix.com/GPX/1/1 http://www.topografix.com/GPX/1/1/gpx.xsd">
  <metadata>
    <name>Ruta Rápida por Galicia</name>
    <desc>Simulación rápida de conducción en Galicia</desc>
  </metadata>
  <trk>
    <name>Galicia Fast Drive</name>
    <trkseg>
      <!-- Inicio: Santiago de Compostela -->
      <trkpt lat="42.8782" lon="-8.5448"><ele>264</ele></trkpt>
      <trkpt lat="42.8800" lon="-8.5430"><ele>265</ele></trkpt>
      <trkpt lat="42.8820" lon="-8.5410"><ele>266</ele></trkpt>
      <trkpt lat="42.8840" lon="-8.5390"><ele>267</ele></trkpt>
      <trkpt lat="42.8860" lon="-8.5370"><ele>268</ele></trkpt>
      <trkpt lat="42.8880" lon="-8.5350"><ele>270</ele></trkpt>
      <trkpt lat="42.8900" lon="-8.5330"><ele>272</ele></trkpt>
      <trkpt lat="42.8920" lon="-8.5310"><ele>274</ele></trkpt>
      <trkpt lat="42.8940" lon="-8.5290"><ele>276</ele></trkpt>
      <trkpt lat="42.8960" lon="-8.5270"><ele>278</ele></trkpt>

      <!-- Giro hacia el este -->
      <trkpt lat="42.8980" lon="-8.5250"><ele>280</ele></trkpt>
      <trkpt lat="42.9000" lon="-8.5220"><ele>282</ele></trkpt>
      <trkpt lat="42.9020" lon="-8.5190"><ele>284</ele></trkpt>
      <trkpt lat="42.9040" lon="-8.5160"><ele>286</ele></trkpt>
      <trkpt lat="42.9060" lon="-8.5130"><ele>288</ele></trkpt>
      <trkpt lat="42.9080" lon="-8.5100"><ele>290</ele></trkpt>
      <trkpt lat="42.9100" lon="-8.5070"><ele>292</ele></trkpt>
      <trkpt lat="42.9120" lon="-8.5040"><ele>294</ele></trkpt>

      <!-- Zona de desviación simulada -->
      <trkpt lat="42.9130" lon="-8.5010"><ele>296</ele></trkpt>
      <trkpt lat="42.9135" lon="-8.4980"><ele>298</ele></trkpt>
      <trkpt lat="42.9140" lon="-8.4950"><ele>300</ele></trkpt>
      <trkpt lat="42.9150" lon="-8.4920"><ele>302</ele></trkpt>

      <!-- Volver a la ruta principal -->
      <trkpt lat="42.9160" lon="-8.4890"><ele>304</ele></trkpt>
      <trkpt lat="42.9170" lon="-8.4860"><ele>306</ele></trkpt>
      <trkpt lat="42.9180" lon="-8.4830"><ele>308</ele></trkpt>
      <trkpt lat="42.9190" lon="-8.4800"><ele>310</ele></trkpt>
      <trkpt lat="42.9200" lon="-8.4770"><ele>312</ele></trkpt>
      <trkpt lat="42.9210" lon="-8.4740"><ele>314</ele></trkpt>
      <trkpt lat="42.9220" lon="-8.4710"><ele>316</ele></trkpt>
      <trkpt lat="42.9230" lon="-8.4680"><ele>318</ele></trkpt>
      <trkpt lat="42.9240" lon="-8.4650"><ele>320</ele></trkpt>
    </trkseg>
  </trk>
</gpx>
